MEAN_MOTION;ECCENTRICITY;INCLINATION;RA_OF_ASC_NODE;ARG_OF_PERICENTER;MEAN_ANOMALY;BSTAR;MEAN_MOTION_DOT;MEAN_MOTION_DDOT;TYPE
14.3421876;0.0002287;86.3962;52.7264;76.6964;283.4486;2.395E-5;8.7E-7;0;Iridium
14.34218805;0.0002268;86.3963;52.493;76.5529;283.5919;2.2355E-5;8.2E-7;0;Iridium
14.34218805;0.0002268;86.3963;52.493;76.5529;283.5919;2.2355E-5;8.2E-7;0;Iridium
14.34218864;0.0002259;86.3964;52.318;76.4916;283.6531;2.2123E-5;8.2E-7;0;Iridium
14.3421894;0.0002241;86.3965;52.0846;76.4437;283.7008;2.1643E-5;8.0E-7;0;Iridium
14.34219008;0.0002232;86.3966;51.8805;76.4526;283.6918;2.0782E-5;7.8E-7;0;Iridium
14.34219077;0.000222;86.3967;51.6763;76.2813;283.863;2.0708E-5;7.8E-7;0;Iridium
14.34219132;0.0002213;86.3967;51.5014;76.1698;283.9744;2.0125E-5;7.6E-7;0;Iridium
14.34219228;0.0002198;86.3968;51.2679;76.3985;283.7456;2.0287E-5;7.7E-7;0;Iridium
14.34219212;0.0002202;86.3968;51.2096;76.4082;283.7359;1.8575E-5;7.2E-7;0;Iridium
14.3421933;0.0002173;86.397;50.8304;76.2697;283.874;1.7733E-5;6.9E-7;0;Iridium
14.3421933;0.0002173;86.397;50.8304;76.2697;283.874;1.7733E-5;6.9E-7;0;Iridium
14.34219418;0.0002147;86.3972;50.4512;76.2776;283.8659;1.6816E-5;6.7E-7;0;Iridium
14.34215537;0.000216;86.3973;50.0134;74.9245;285.2189;1.7231E-5;6.8E-7;0;Iridium
14.34215537;0.000216;86.3973;50.0134;74.9245;285.2189;1.7231E-5;6.8E-7;0;Iridium
14.34215645;0.0002146;86.3974;49.8093;75.2628;284.8806;1.7473E-5;6.9E-7;0;Iridium
14.3421556;0.0002114;86.3976;49.3721;76.2526;283.8905;2.0196E-6;2.5E-7;0;Iridium
14.34215702;0.0002105;86.3977;49.1098;76.0782;284.0647;1.0926E-5;5.0E-7;0;Iridium
14.34215756;0.0002102;86.3977;48.9932;75.8458;284.2971;1.5793E-5;6.4E-7;0;Iridium
14.34215777;0.0002083;86.3979;48.7307;76.0487;284.0941;1.3556E-5;5.8E-7;0;Iridium
14.34215777;0.0002075;86.398;48.5558;76.0808;284.0618;1.1722E-5;5.3E-7;0;Iridium
14.34215884;0.000206;86.3981;48.2933;76.1638;283.9787;1.7886E-5;7.0E-7;0;Iridium
14.3421592;0.0002048;86.3981;48.1184;76.2266;283.9158;1.7705E-5;6.9E-7;0;Iridium
14.34216016;0.0002033;86.3982;47.8852;76.4225;283.7197;2.1068E-5;7.9E-7;0;Iridium
14.34216017;0.0002032;86.3982;47.856;76.4127;283.7295;2.0842E-5;7.8E-7;0;Iridium
14.34216061;0.0002021;86.3983;47.7103;76.4762;283.6659;2.0785E-5;7.8E-7;0;Iridium
14.34216213;0.0002005;86.3984;47.4479;76.5941;283.5478;2.6523E-5;9.4E-7;0;Iridium
14.34216216;0.0001999;86.3984;47.3021;76.6652;283.4766;2.3077E-5;8.4E-7;0;Iridium
14.34216328;0.0001988;86.3985;47.0398;76.9085;283.2333;2.5786E-5;9.2E-7;0;Iridium
14.34216328;0.0001987;86.3986;47.0106;76.9098;283.232;2.5317E-5;9.1E-7;0;Iridium
14.34216336;0.0001979;86.3986;46.8649;77.043;283.0986;2.1315E-5;7.9E-7;0;Iridium
14.34216406;0.0001968;86.3987;46.6025;77.1925;282.949;2.1021E-5;7.9E-7;0;Iridium
14.3421642;0.0001959;86.3987;46.4568;77.2607;282.8808;1.8167E-5;7.1E-7;0;Iridium
14.34216485;0.0001946;86.3989;46.1944;77.4921;282.6492;1.7288E-5;6.8E-7;0;Iridium
14.34216457;0.0001943;86.3989;46.0487;77.5181;282.6232;1.1387E-5;5.2E-7;0;Iridium
14.34216505;0.0001929;86.399;45.8447;77.704;282.4372;1.2077E-5;5.4E-7;0;Iridium
14.34216504;0.0001922;86.3991;45.6115;77.8265;282.3146;8.3012E-6;4.3E-7;0;Iridium
14.34216633;0.0001913;86.3993;45.3783;78.0275;282.1135;1.3206E-5;5.7E-7;0;Iridium
14.34216633;0.0001913;86.3993;45.3783;78.0275;282.1135;1.3206E-5;5.7E-7;0;Iridium
14.34216675;0.0001907;86.3993;45.2035;78.1097;282.0313;1.276E-5;5.6E-7;0;Iridium
14.3421679;0.0001896;86.3995;44.9412;78.5124;281.6284;1.693E-5;6.7E-7;0;Iridium
14.34216814;0.000189;86.3995;44.7955;78.6497;281.4911;1.556E-5;6.3E-7;0;Iridium
14.3421691;0.0001878;86.3996;44.5332;78.9738;281.1669;1.8003E-5;7.0E-7;0;Iridium
14.34216909;0.0001876;86.3997;44.3583;79.2283;280.9124;1.5396E-5;6.3E-7;0;Iridium
14.34216976;0.0001868;86.3998;44.1252;79.5907;280.5499;1.7026E-5;6.7E-7;0;Iridium
14.34216975;0.0001868;86.3998;44.096;79.6083;280.5323;1.6925E-5;6.7E-7;0;Iridium
14.34217019;0.0001865;86.3999;43.9503;79.831;280.3096;1.7738E-5;6.9E-7;0;Iridium
14.34217014;0.0001857;86.3999;43.688;79.9854;280.1552;1.3967E-5;5.9E-7;0;Iridium
14.34217054;0.0001849;86.4;43.5423;80.1735;279.9669;1.4393E-5;6.0E-7;0;Iridium
14.34217054;0.0001849;86.4;43.5423;80.1735;279.9669;1.4393E-5;6.0E-7;0;Iridium
14.34217155;0.0001829;86.4001;43.1344;80.8133;279.3269;1.6865E-5;6.7E-7;0;Iridium
14.3421722;0.0001821;86.4002;42.9304;81.0801;279.0601;1.838E-5;7.1E-7;0;Iridium
14.3421722;0.0001821;86.4002;42.9304;81.0801;279.0601;1.838E-5;7.1E-7;0;Iridium
14.34217325;0.0001815;86.4002;42.6973;81.4708;278.6693;2.1188E-5;7.9E-7;0;Iridium
14.34217449;0.0001806;86.4003;42.5225;81.6035;278.5366;2.626E-5;9.3E-7;0;Iridium
14.34217531;0.0001803;86.4003;42.2894;81.8217;278.3184;2.6185E-5;9.3E-7;0;Iridium
14.34217654;0.0001793;86.4004;42.0854;82.1376;278.0023;2.9673E-5;1.03E-6;0;Iridium
14.34217654;0.0001793;86.4004;42.0854;82.1376;278.0023;2.9673E-5;1.03E-6;0;Iridium
14.3421774;0.0001792;86.4004;41.8815;82.632;277.508;3.027E-5;1.05E-6;0;Iridium
14.34217797;0.0001783;86.4005;41.6776;82.9064;277.2335;2.9522E-5;1.02E-6;0;Iridium
14.34217858;0.0001782;86.4006;41.4445;83.4446;276.6953;2.8096E-5;9.8E-7;0;Iridium
14.34217913;0.0001777;86.4007;41.2697;83.7356;276.4042;2.7565E-5;9.7E-7;0;Iridium
14.34217978;0.0001778;86.4007;41.0367;84.145;275.9948;2.5661E-5;9.2E-7;0;Iridium
14.34218036;0.0001774;86.4008;40.8328;84.8192;275.3206;2.4539E-5;8.8E-7;0;Iridium
14.34218036;0.0001774;86.4008;40.8328;84.8192;275.3206;2.4539E-5;8.8E-7;0;Iridium
14.34218076;0.0001777;86.4008;40.6289;85.3895;274.7504;2.2182E-5;8.2E-7;0;Iridium
14.34218087;0.0001779;86.4009;40.4249;85.4274;274.7125;1.8291E-5;7.1E-7;0;Iridium
14.34218141;0.0001776;86.401;40.1919;85.7291;274.4108;1.6643E-5;6.6E-7;0;Iridium
14.34218228;0.0001773;86.401;40.0171;85.8148;274.3251;1.7592E-5;6.9E-7;0;Iridium
14.34218283;0.0001775;86.4011;39.7841;86.1661;273.9738;1.624E-5;6.5E-7;0;Iridium
14.34218367;0.0001777;86.4011;39.6092;86.5574;273.5826;1.767E-5;6.9E-7;0;Iridium
14.34218445;0.0001785;86.4012;39.3762;87.0256;273.1144;1.7354E-5;6.8E-7;0;Iridium
14.34218583;0.0001792;86.4013;38.9392;87.848;272.2921;1.8341E-5;7.1E-7;0;Iridium
14.34218672;0.000179;86.4013;38.5605;88.4772;271.6629;1.8413E-5;7.1E-7;0;Iridium
14.34218734;0.0001793;86.4014;38.3274;88.9437;271.1964;1.9534E-5;7.4E-7;0;Iridium
14.34218734;0.0001793;86.4014;38.3274;88.9437;271.1964;1.9534E-5;7.4E-7;0;Iridium
14.34218771;0.0001797;86.4014;38.1235;89.3003;270.8399;1.8976E-5;7.3E-7;0;Iridium
14.34218827;0.00018;86.4014;37.9196;89.432;270.7082;2.0577E-5;7.7E-7;0;Iridium
14.34218871;0.0001806;86.4015;37.6866;89.5053;270.6349;2.0236E-5;7.6E-7;0;Iridium
14.34218934;0.0001803;86.4015;37.5118;89.7629;270.3774;2.1864E-5;8.1E-7;0;Iridium
14.34219008;0.000181;86.4015;37.3079;90.1546;269.9857;2.3256E-5;8.5E-7;0;Iridium
14.34219098;0.0001815;86.4015;37.1039;90.6698;269.4706;2.5674E-5;9.2E-7;0;Iridium
14.3421918;0.0001825;86.4015;36.8709;91.1155;269.025;2.6145E-5;9.3E-7;0;Iridium
14.34219253;0.0001827;86.4015;36.6961;91.4407;268.6998;2.7234E-5;9.6E-7;0;Iridium
14.34219253;0.0001827;86.4015;36.6961;91.4407;268.6998;2.7234E-5;9.6E-7;0;Iridium
14.34219325;0.0001836;86.4015;36.463;91.6465;268.4941;2.6705E-5;9.5E-7;0;Iridium
14.34219404;0.0001837;86.4015;36.2591;91.8474;268.2932;2.7366E-5;9.6E-7;0;Iridium
14.34219474;0.0001847;86.4015;35.8514;92.5028;267.6379;2.3193E-5;8.5E-7;0;Iridium
14.34219527;0.0001856;86.4015;35.6475;92.8275;267.3133;2.1851E-5;8.1E-7;0;Iridium
14.34219612;0.000187;86.4015;35.4145;93.475;266.666;2.1836E-5;8.1E-7;0;Iridium
14.34219663;0.0001877;86.4015;35.2688;93.6229;266.5182;2.1775E-5;8.1E-7;0;Iridium
14.34219671;0.000188;86.4015;35.2106;93.722;266.4191;2.074E-5;7.8E-7;0;Iridium
14.34219741;0.0001888;86.4015;35.0358;93.6516;266.4896;2.1041E-5;7.9E-7;0;Iridium
14.34219838;0.0001901;86.4016;34.8028;93.8163;266.325;2.1086E-5;7.9E-7;0;Iridium
14.34219898;0.000191;86.4016;34.5989;93.9922;266.1492;2.0599E-5;7.7E-7;0;Iridium
14.34219898;0.000191;86.4016;34.5989;93.9922;266.1492;2.0599E-5;7.7E-7;0;Iridium
14.34219951;0.0001924;86.4016;34.366;94.2503;265.8913;1.9408E-5;7.4E-7;0;Iridium
14.34220047;0.0001935;86.4017;33.9582;94.5879;265.5538;1.7727E-5;6.9E-7;0;Iridium
14.34220092;0.0001944;86.4017;33.7834;94.8067;265.335;1.7846E-5;7.0E-7;0;Iridium
14.34220127;0.000196;86.4016;33.5503;95.0376;265.1044;1.6243E-5;6.5E-7;0;Iridium
14.34220173;0.0001961;86.4017;33.3756;94.7069;265.4351;1.6738E-5;6.7E-7;0;Iridium
14.34220196;0.0001971;86.4016;33.1425;94.8266;265.3154;1.5281E-5;6.3E-7;0;Iridium
14.34216128;0.0002119;86.4013;32.8516;92.0874;268.0565;1.7581E-5;6.9E-7;0;Iridium
14.34216546;0.0002105;86.4015;32.7056;93.1454;266.9982;1.7295E-5;6.8E-7;0;Iridium
14.3421516;0.000341;86.4006;32.5317;73.4448;286.7123;1.8141E-5;7.1E-7;0;Iridium
14.34215965;0.0002071;86.4015;32.2975;93.2645;266.8788;1.8703E-5;7.2E-7;0;Iridium
14.34215575;0.0002054;86.4017;32.1521;94.5449;265.5981;2.0083E-5;7.6E-7;0;Iridium
14.34215576;0.0002052;86.4017;32.1229;94.5139;265.6291;2.0134E-5;7.6E-7;0;Iridium
14.34215576;0.0002052;86.4017;32.1229;94.5139;265.6291;2.0134E-5;7.6E-7;0;Iridium
14.34215605;0.0002067;86.4016;31.89;94.8315;265.3116;9.2781E-6;4.6E-7;0;Iridium
14.34215721;0.0002077;86.4015;31.5114;95.0241;265.1192;1.699E-5;6.7E-7;0;Iridium
14.34215688;0.000208;86.4015;31.4823;95.0628;265.0805;1.2496E-5;5.5E-7;0;Iridium
14.3421576;0.0002091;86.4015;31.2783;95.4614;264.682;1.3244E-5;5.7E-7;0;Iridium
14.34215953;0.0002088;86.4014;31.0453;95.2469;264.8965;2.6846E-5;9.5E-7;0;Iridium
14.34216048;0.000209;86.4014;30.8705;95.3266;264.8168;2.9122E-5;1.01E-6;0;Iridium
14.3421607;0.0002103;86.4014;30.6374;95.443;264.7006;2.4734E-5;8.9E-7;0;Iridium
14.34216187;0.0002104;86.4014;30.4627;95.2908;264.8528;2.818E-5;9.9E-7;0;Iridium
14.3421633;0.0002121;86.4013;30.0548;95.5844;264.5594;2.6593E-5;9.4E-7;0;Iridium
14.342164;0.0002129;86.4012;29.8509;95.5874;264.5564;2.5658E-5;9.2E-7;0;Iridium
14.3421651;0.0002147;86.4012;29.6178;96.3356;263.8085;2.5535E-5;9.1E-7;0;Iridium
14.3421651;0.0002147;86.4012;29.6178;96.3356;263.8085;2.5535E-5;9.1E-7;0;Iridium
